NORAD_CAT_ID,OBJECT_NAME,OBJECT_TYPE,EPOCH,MEAN_MOTION,ECCENTRICITY,INCLINATION,RA_OF_ASC_NODE,ARG_OF_PERICENTER,MEAN_ANOMALY,BSTAR,MEAN_MOTION_DOT,MEAN_MOTION_DDOT,TLE_LINE0,TLE_LINE1,TLE_LINE2,SEMIMAJOR_AXIS,PERIOD,APOGEE,PERIGEE,DECAYED
52268.0,STARLINK-3746,PAYLOAD,2022-08-26 22:00:00,15.08869747,0.0002184,53.2174,143.6198,59.4735,216.7085,-0.0042057,-0.0006666,0.0,0 STARLINK-3746,1 52268U 22041H   22238.91667824 -.00066660  00000-0 -42057-2 0  9998,2 52268  53.2174 143.6198 0002184  59.4735 216.7085 15.08869747  1305,6917.7890000000025,95.436,541.165,538.144,0.0
52268.0,STARLINK-3746,PAYLOAD,2022-08-27 14:00:01,15.08811541,0.0002119,53.2175,140.6261,60.5216,238.8569,0.0029846,0.00047496,0.0,0 STARLINK-3746,1 52268U 22041H   22239.58334491  .00047496  00000-0  29846-2 0  9998,2 52268  53.2175 140.6261 0002119  60.5216 238.8569 15.08811541  1300,6917.967,95.439,541.298,538.366,0.0
52268.0,STARLINK-3746,PAYLOAD,2022-08-27 22:00:00,15.08854774,0.0002248,53.2176,139.1309,59.2903,251.6698,-0.0013418,-0.00021589,0.0,0 STARLINK-3746,1 52268U 22041H   22239.91667824 -.00021589  00000-0 -13418-2 0  9999,2 52268  53.2176 139.1309 0002248  59.2903 251.6698 15.08854774 20872,6917.835,95.437,541.255,538.145,0.0
52268.0,STARLINK-3746,PAYLOAD,2022-08-28 14:00:01,15.08812886,0.0002112,53.2177,136.137,61.1209,273.0663,0.0025532,0.00040551,0.0,0 STARLINK-3746,1 52268U 22041H   22240.58334491  .00040551  00000-0  25532-2 0  9993,2 52268  53.2177 136.1370 0002112  61.1209 273.0663 15.08812886 20978,6917.9630000000025,95.439,541.289,538.367,0.0
52268.0,STARLINK-3746,PAYLOAD,2022-08-28 22:00:00,15.08848281,0.0002218,53.2178,134.6419,58.5606,287.2044,-0.0013013,-0.00020944,0.0,0 STARLINK-3746,1 52268U 22041H   22240.91667824 -.00020944  00000-0 -13013-2 0  9996,2 52268  53.2178 134.6419 0002218  58.5606 287.2044 15.08848281  1308,6917.855,95.437,541.254,538.186,0.0
52268.0,STARLINK-3746,PAYLOAD,2022-08-29 06:00:02,15.08853451,0.0002204,53.2175,133.1459,54.9112,302.5067,-0.0028016,-0.00044618,0.0,0 STARLINK-3746,1 52268U 22041H   22241.25002315 -.00044618  00000-0 -28016-2 0  9995,2 52268  53.2175 133.1459 0002204  54.9112 302.5067 15.08853451 21077,6917.839,95.437,541.229,538.18,0.0
52268.0,STARLINK-3746,PAYLOAD,2022-08-29 14:00:01,15.08794162,0.0002036,53.2177,131.6479,61.2451,307.7125,0.0032688,0.00052054,0.0,0 STARLINK-3746,1 52268U 22041H   22241.58334491  .00052054  00000-0  32688-2 0  9995,2 52268  53.2177 131.6479 0002036  61.2451 307.7125 15.08794162  1303,6918.021,95.44,541.294,538.477,0.0
52268.0,STARLINK-3746,PAYLOAD,2022-08-29 22:00:00,15.08837848,0.0002171999999999,53.2177,130.153,58.4793,322.0424,-0.0013228,-0.00021278,0.0,0 STARLINK-3746,1 52268U 22041H   22241.91667824 -.00021278  00000-0 -13228-2 0  9996,2 52268  53.2177 130.1530 0002172  58.4793 322.0424 15.08837848  1304,6917.887,95.438,541.255,538.249,0.0
52268.0,STARLINK-3746,PAYLOAD,2022-08-30 14:00:01,15.08814572,0.0002041,53.2175,127.1588,63.4234,340.276,0.0032607,0.00051953,0.0,0 STARLINK-3746,1 52268U 22041H   22242.58334491  .00051953  00000-0  32607-2 0  9994,2 52268  53.2175 127.1588 0002041  63.4234 340.2760 15.08814572 21285,6917.958000000001,95.439,541.235,538.411,0.0
52268.0,STARLINK-3746,PAYLOAD,2022-08-30 22:00:00,15.08854147,0.0002171,53.2174,125.664,60.2774,355.0080000000001,-0.0012784,-0.00020585,0.0,0 STARLINK-3746,1 52268U 22041H   22242.91667824 -.00020585  00000-0 -12784-2 0  9993,2 52268  53.2174 125.6640 0002171  60.2774 355.0080 15.08854147  1306,6917.837,95.437,541.2040000000002,538.2,0.0
52268.0,STARLINK-3746,PAYLOAD,2022-08-31 14:00:01,15.08805716,0.0001948,53.217,122.6695,64.4963,13.9979,0.0028989999999999,0.00046109,0.0,0 STARLINK-3746,1 52268U 22041H   22243.58334491  .00046109  00000-0  28990-2 0  9992,2 52268  53.2170 122.6695 0001948  64.4963  13.9979 15.08805716  1301,6917.985,95.44,541.198,538.503,0.0
52268.0,STARLINK-3746,PAYLOAD,2022-08-31 22:00:00,15.08839139,0.0002083,53.2169,121.1748,61.1118,28.9567,-0.0011778,-0.00018984,0.0,0 STARLINK-3746,1 52268U 22041H   22243.91667824 -.00018984  00000-0 -11778-2 0  9996,2 52268  53.2169 121.1748 0002083  61.1118  28.9567 15.08839139 21485,6917.8830000000025,95.438,541.189,538.307,0.0
52268.0,STARLINK-3746,PAYLOAD,2022-09-01 14:00:01,15.08825523,0.0001994,53.2166,118.1804,67.0778,46.2415,0.0025412,0.00040372,0.0,0 STARLINK-3746,1 52268U 22041H   22244.58335648  .00040372  00000-0  25412-2 0  9990,2 52268  53.2166 118.1804 0001994  67.0778  46.2415 15.08825523 21586,6917.925,95.438,541.169,538.41,0.0
52268.0,STARLINK-3746,PAYLOAD,2022-09-01 22:00:00,15.08851451,0.0002119,53.2165,116.6857,62.8281,62.0245,-0.00082826,-0.0001345,0.0,0 STARLINK-3746,1 52268U 22041H   22244.91667824 -.00013450  00000-0 -82826-3 0  9993,2 52268  53.2165 116.6857 0002119  62.8281  62.0245 15.08851451  1302,6917.845,95.437,541.1759999999998,538.244,0.0
52268.0,STARLINK-3746,PAYLOAD,2022-09-02 06:00:00,15.08875736,0.0002061,53.2163,115.1889,61.2867,75.1631,-0.0041501,-0.000658,0.0,0 STARLINK-3746,1 52268U 22041H   22245.25001157 -.00065800  00000-0 -41501-2 0  9992,2 52268  53.2163 115.1889 0002061  61.2867  75.1631 15.08875736 21687,6917.771,95.435,541.062,538.21,0.0
52268.0,STARLINK-3746,PAYLOAD,2022-09-02 14:00:01,15.0881468,0.000194,53.2165,113.6912,67.3503,80.71300000000002,0.002151,0.00034088,0.0,0 STARLINK-3746,1 52268U 22041H   22245.58334491  .00034088  00000-0  21510-2 0  9998,2 52268  53.2165 113.6912 0001940  67.3503  80.7130 15.08814680  1302,6917.958000000001,95.439,541.165,538.481,0.0
52268.0,STARLINK-3746,PAYLOAD,2022-09-02 22:00:01,15.08832824,0.0002075,53.2165,112.1966,62.3089,97.397,-0.00051351,-8.45e-05,0.0,0 STARLINK-3746,1 52268U 22041H   22245.91668981 -.00008450  00000-0 -51351-3 0  9992,2 52268  53.2165 112.1966 0002075  62.3089  97.3970 15.08832824  1305,6917.901999999999,95.438,541.203,538.332,0.0
52268.0,STARLINK-3746,PAYLOAD,2022-09-03 14:00:01,15.08832375,0.0002009999999999,53.2168,109.2021,67.9595,114.8618,0.0019936,0.00031576,0.0,0 STARLINK-3746,1 52268U 22041H   22246.58334491  .00031576  00000-0  19936-2 0  9997,2 52268  53.2168 109.2021 0002010  67.9595 114.8618 15.08832375 21889,6917.904,95.438,541.159,538.378,0.0
52268.0,STARLINK-3746,PAYLOAD,2022-09-03 22:00:00,15.08851297,0.0002126999999999,53.2169,107.7075,62.2465,132.1795,-0.00026557,-4.514e-05,0.0,0 STARLINK-3746,1 52268U 22041H   22246.91667824 -.00004514  00000-0 -26557-3 0  9995,2 52268  53.2169 107.7075 0002127  62.2465 132.1795 15.08851297  1303,6917.846,95.437,541.182,538.239,0.0
52268.0,STARLINK-3746,PAYLOAD,2022-09-04 06:00:00,15.08871085,0.0002013,53.2171,106.2105,61.3793,144.6534,-0.0035864,-0.00056964,0.0,0 STARLINK-3746,1 52268U 22041H   22247.25001157 -.00056964  00000-0 -35864-2 0  9990,2 52268  53.2171 106.2105 0002013  61.3793 144.6534 15.08871085 21984,6917.785,95.436,541.043,538.258,0.0
52268.0,STARLINK-3746,PAYLOAD,2022-09-04 14:00:01,15.08833372,0.0001949,53.2174,104.713,66.9048,150.7975,0.0019699,0.00031197,0.0,0 STARLINK-3746,1 52268U 22041H   22247.58335648  .00031197  00000-0  19699-2 0  9998,2 52268  53.2174 104.7130 0001949  66.9048 150.7975 15.08833372  1307,6917.901,95.438,541.114,538.4169999999998,0.0
52268.0,STARLINK-3746,PAYLOAD,2022-09-04 20:00:01,15.08869041,0.0002016,53.2175,103.5923,61.7604,74.5553,-0.002919,-0.00046483,0.0,0 STARLINK-3746,1 52268U 22041H   22247.83334491 -.00046483  00000-0 -29190-2 0  9994,2 52268  53.2175 103.5923 0002016  61.7604  74.5553 15.08869041 22076,6917.792,95.436,541.0509999999998,538.262,0.0
52268.0,STARLINK-3746,PAYLOAD,2022-09-05 14:00:01,15.08854459,0.0001811999999999,53.2181,100.2242,65.4738,186.9462,-0.0011055,-0.00017846,0.0,0 STARLINK-3746,1 52268U 22041H   22248.58334491 -.00017846  00000-0 -11055-2 0  9999,2 52268  53.2181 100.2242 0001812  65.4738 186.9462 15.08854459 22189,6917.8359999999975,95.437,540.955,538.448,0.0
52268.0,STARLINK-3746,PAYLOAD,2022-09-05 22:00:00,15.08819668,0.0001906,53.2182,98.7297,57.5984,206.4217,0.00048486,7.433e-05,0.0,0 STARLINK-3746,1 52268U 22041H   22248.91667824  .00007433  00000-0  48486-3 0  9993,2 52268  53.2182  98.7297 0001906  57.5984 206.4217 15.08819668  1300,6917.943,95.439,541.126,538.489,0.0
52268.0,STARLINK-3746,PAYLOAD,2022-09-06 14:00:01,15.08811413,0.0001672,53.2184,95.7355,63.8986,223.2652,0.0015804,0.00024934,0.0,0 STARLINK-3746,1 52268U 22041H   22249.58334491  .00024934  00000-0  15804-2 0  9990,2 52268  53.2184  95.7355 0001672  63.8986 223.2652 15.08811413  1306,6917.968000000003,95.439,540.989,538.6759999999998,0.0
52268.0,STARLINK-3746,PAYLOAD,2022-09-06 22:00:00,15.08808857,0.0001833,53.2183,94.241,56.8914,241.8402,0.0010923,0.00017124,0.0,0 STARLINK-3746,1 52268U 22041H   22249.91667824  .00017124  00000-0  10923-2 0  9996,2 52268  53.2183  94.2410 0001833  56.8914 241.8402 15.08808857 22381,6917.976,95.44,541.109,538.573,0.0
52268.0,STARLINK-3746,PAYLOAD,2022-09-07 14:00:01,15.08832208,0.0001669,53.2183,91.2467,65.3647,256.5092,0.00097223,0.00015216,0.0,0 STARLINK-3746,1 52268U 22041H   22250.58334491  .00015216  00000-0  97223-3 0  9991,2 52268  53.2183  91.2467 0001669  65.3647 256.5092 15.08832208  1309,6917.904,95.438,540.924,538.615,0.0
52268.0,STARLINK-3746,PAYLOAD,2022-09-07 22:00:00,15.08824492,0.0001813,53.218,89.7522,58.3715,275.0955,0.0013102,0.00020617,0.0,0 STARLINK-3746,1 52268U 22041H   22250.91667824  .00020617  00000-0  13102-2 0  9991,2 52268  53.2180  89.7522 0001813  58.3715 275.0955 15.08824492  1309,6917.928000000001,95.439,541.047,538.539,0.0
52268.0,STARLINK-3746,PAYLOAD,2022-09-08 06:00:00,15.08854521,0.0001699,53.2176,88.2545,60.9501,284.1035,-0.0014280999999999,-0.00022954,0.0,0 STARLINK-3746,1 52268U 22041H   22251.25001157 -.00022954  00000-0 -14281-2 0  9997,2 52268  53.2176  88.2545 0001699  60.9501 284.1035 15.08854521 22586,6917.8359999999975,95.437,540.876,538.526,0.0
